IRIDIUM 112             
1 41925U 17003J   24348.65993459  .00000131  00000+0  39725-4 0  9997
2 41925  86.3954 318.3600 0002524  85.8386 274.3099 14.34217780414392
IRIDIUM 111             
1 41926U 17003K   24349.20539732  .00000153  00000+0  47637-4 0  9995
2 41926  86.3954 318.1903 0002157  84.1980 275.9461 14.34217322414494
IRIDIUM 113             
1 42803U 17039A   24349.11559352  .00000050  00000+0  10797-4 0  9992
2 42803  86.3997 192.0264 0002456  82.8728 277.2747 14.34217898392341
IRIDIUM 123             
1 42804U 17039B   24349.08729803  .00000252  00000+0  82850-4 0  9992
2 42804  86.3989 223.4795 0001829  79.2820 280.8582 14.34215937391109
IRIDIUM 120             
1 42805U 17039C   24349.10923746  .00000534  00000+0  18358-3 0  9992
2 42805  86.3988 191.8833 0001701  91.0830 269.0561 14.34212680392336
IRIDIUM 115             
1 42806U 17039D   24348.56238334  .00000727  00000+0  21017-3 0  9994
2 42806  86.4524 192.1632 0001964  74.4254 285.7164 14.43277880394846
IRIDIUM 118             
1 42807U 17039E   24349.11901359  .00000465  00000+0  15884-3 0  9995
2 42807  86.3989 223.4668 0002061  85.8836 274.2596 14.34222351391111
IRIDIUM 117             
1 42808U 17039F   24348.64966334  .00000192  00000+0  61415-4 0  9996
2 42808  86.3988 223.6257 0001802  78.2674 281.8723 14.34217497391071
